{
  "norad_id": 58035,
  "name": "STARLINK-30438",
  "history": [
    {
      "epoch": "2026-03-28T22:02:01.192704Z",
      "apogee_km": 476.2414687626215,
      "perigee_km": 474.2019092167775,
      "latitude_deg": 8.053011597761444e-05,
      "longitude_deg": -168.04323599499625,
      "height_km": 476.5924408927278,
      "semi_major_axis_km": 6853.358688989699,
      "eccentricity": 0.0001488,
      "inclination_deg": 53.1633,
      "raan_deg": 348.7933,
      "arg_perigee_deg": 117.5969,
      "mean_anomaly_deg": 242.5184,
      "mean_motion_rev_day": 15.30197783
    },
    {
      "epoch": "2026-03-28T23:36:04.346496Z",
      "apogee_km": 476.1701071824409,
      "perigee_km": 474.26213367371383,
      "latitude_deg": 1.0502098405042363e-05,
      "longitude_deg": 168.07499432031548,
      "height_km": 476.74352269892694,
      "semi_major_axis_km": 6853.353120428077,
      "eccentricity": 0.0001392,
      "inclination_deg": 53.1622,
      "raan_deg": 348.4891,
      "arg_perigee_deg": 131.2336,
      "mean_anomaly_deg": 228.8785,
      "mean_motion_rev_day": 15.30199648
    }
  ]
}